[{"name":"AURA","l1":"1 28376U 04026A   26183.73440138  .00000886  00000+0  18895-3 0  9993","l2":"2 28376  98.3423 140.3171 0001182  86.4100 273.7236 14.61352876168485","cat":"other"},{"name":"CAPELLA-11 (ACADIA-1)","l1":"1 57693U 23126A   26183.19536110  .00005671  00000+0  69648-3 0  9994","l2":"2 57693  53.0069 119.7691 0002074 103.9762 256.1447 14.84309330154352","cat":"other"},{"name":"CAPELLA-14 (ACADIA-4)","l1":"1 59444U 24066C   26183.65818083  .00011227  00000+0  70365-3 0  9999","l2":"2 59444  45.6013 173.6814 0001230 132.2782 227.8208 15.09524944114826","cat":"other"},{"name":"CAPELLA-13 (ACADIA-3)","l1":"1 60419U 24142A   26182.74477614  .00005440  00000+0  61745-3 0  9990","l2":"2 60419  53.0045 354.0224 0001421  93.6265 266.4877 14.87653682102573","cat":"other"},{"name":"CAPELLA-15 (ACADIA-5)","l1":"1 60544U 24149CE  26183.74347954  .00005194  00000+0  51229-3 0  9992","l2":"2 60544  97.6766 256.2580 0003810  31.3549 328.7897 14.92414143102175","cat":"other"},{"name":"BIOMASS","l1":"1 63772U 25090A   26183.78618444  .00001229  00000+0  22609-3 0  9998","l2":"2 63772  98.0749  10.8717 0001504  87.3842 272.7535 14.67359874 62979","cat":"other"},{"name":"CAPELLA-17 (ACADIA-7)","l1":"1 64583U 25135BH  26183.76888063  .00007407  00000+0  74498-3 0  9990","l2":"2 64583  97.7703 297.1602 0003962 305.2723  54.8125 14.91496967 56170","cat":"other"},{"name":"CAPELLA-16 (ACADIA-6)","l1":"1 65318U 25188D   26183.49573131  .00008680  00000+0  82035-3 0  9992","l2":"2 65318  97.7385 258.4179 0004886 166.0301 194.1055 14.93923346 46204","cat":"other"},{"name":"CAPELLA-19 (ACADIA-9)","l1":"1 67384U 26004X   26183.74681524  .00006778  00000+0  76908-3 0  9997","l2":"2 67384  97.8002 181.8406 0001455  88.2481 271.8902 14.86641636 25584","cat":"other"},{"name":"CAPELLA-18 (ACADIA-8)","l1":"1 67385U 26004Y   26183.75685228  .00001467  00000+0  17130-3 0  9996","l2":"2 67385  97.8009 182.0030 0001238  83.2779 276.8577 14.86631818 25597","cat":"other"}]