{
 "generated_at": "2026-07-03T08:09:24Z",
 "sources": [
  {
   "name": "CelesTrak",
   "url": "https://celestrak.org/NORAD/elements/",
   "license": "frei verfügbar; Attribution. Ursprünglich USSPACECOM/Space-Track."
  },
  {
   "name": "GCAT (J. McDowell, planet4589.org)",
   "url": "https://planet4589.org/space/gcat/",
   "license": "CC-BY 4.0"
  }
 ],
 "satellites": [
  {
   "norad": 28376,
   "name": "AURA",
   "intl": "2004-026A",
   "group": "resource",
   "gcat": {
    "class": "C",
    "category": "EOSCI",
    "owner": "GSFC",
    "state": "US"
   },
   "omm": {
    "OBJECT_NAME": "AURA",
    "OBJECT_ID": "2004-026A",
    "EPOCH": "2026-07-02T17:37:32.279232",
    "MEAN_MOTION": 14.61352876,
    "ECCENTRICITY": 0.0001182,
    "INCLINATION": 98.3423,
    "RA_OF_ASC_NODE": 140.3171,
    "ARG_OF_PERICENTER": 86.41,
    "MEAN_ANOMALY": 273.7236,
    "EPHEMERIS_TYPE": 0,
    "CLASSIFICATION_TYPE": "U",
    "NORAD_CAT_ID": 28376,
    "ELEMENT_SET_NO": 999,
    "REV_AT_EPOCH": 16848,
    "BSTAR": 0.00018895,
    "MEAN_MOTION_DOT": 0.00000886,
    "MEAN_MOTION_DDOT": 0
   }
  },
  {
   "norad": 63772,
   "name": "BIOMASS",
   "intl": "2025-090A",
   "group": "resource",
   "gcat": {
    "class": "C",
    "category": "EOSCI",
    "owner": "ESA",
    "state": "I-ESA"
   },
   "omm": {
    "OBJECT_NAME": "BIOMASS",
    "OBJECT_ID": "2025-090A",
    "EPOCH": "2026-07-02T18:52:06.335616",
    "MEAN_MOTION": 14.67359874,
    "ECCENTRICITY": 0.0001504,
    "INCLINATION": 98.0749,
    "RA_OF_ASC_NODE": 10.8717,
    "ARG_OF_PERICENTER": 87.3842,
    "MEAN_ANOMALY": 272.7535,
    "EPHEMERIS_TYPE": 0,
    "CLASSIFICATION_TYPE": "U",
    "NORAD_CAT_ID": 63772,
    "ELEMENT_SET_NO": 999,
    "REV_AT_EPOCH": 6297,
    "BSTAR": 0.00022609,
    "MEAN_MOTION_DOT": 0.00001229,
    "MEAN_MOTION_DDOT": 0
   }
  },
  {
   "norad": 57693,
   "name": "CAPELLA-11 (ACADIA-1)",
   "intl": "2023-126A",
   "group": "sar",
   "gcat": {
    "class": "B",
    "category": "IMG-R",
    "owner": "CAPSP",
    "state": "US"
   },
   "omm": {
    "OBJECT_NAME": "CAPELLA-11 (ACADIA-1)",
    "OBJECT_ID": "2023-126A",
    "EPOCH": "2026-07-02T04:41:19.199040",
    "MEAN_MOTION": 14.8430933,
    "ECCENTRICITY": 0.0002074,
    "INCLINATION": 53.0069,
    "RA_OF_ASC_NODE": 119.7691,
    "ARG_OF_PERICENTER": 103.9762,
    "MEAN_ANOMALY": 256.1447,
    "EPHEMERIS_TYPE": 0,
    "CLASSIFICATION_TYPE": "U",
    "NORAD_CAT_ID": 57693,
    "ELEMENT_SET_NO": 999,
    "REV_AT_EPOCH": 15435,
    "BSTAR": 0.00069648,
    "MEAN_MOTION_DOT": 0.00005671,
    "MEAN_MOTION_DDOT": 0
   }
  },
  {
   "norad": 60419,
   "name": "CAPELLA-13 (ACADIA-3)",
   "intl": "2024-142A",
   "group": "sar",
   "gcat": {
    "class": "B",
    "category": "IMG-R",
    "owner": "CAPSP",
    "state": "US"
   },
   "omm": {
    "OBJECT_NAME": "CAPELLA-13 (ACADIA-3)",
    "OBJECT_ID": "2024-142A",
    "EPOCH": "2026-07-01T17:52:28.658496",
    "MEAN_MOTION": 14.87653682,
    "ECCENTRICITY": 0.00014211,
    "INCLINATION": 53.0045,
    "RA_OF_ASC_NODE": 354.0224,
    "ARG_OF_PERICENTER": 93.6265,
    "MEAN_ANOMALY": 266.4877,
    "EPHEMERIS_TYPE": 0,
    "CLASSIFICATION_TYPE": "U",
    "NORAD_CAT_ID": 60419,
    "ELEMENT_SET_NO": 999,
    "REV_AT_EPOCH": 10257,
    "BSTAR": 0.00061744963,
    "MEAN_MOTION_DOT": 0.0000544,
    "MEAN_MOTION_DDOT": 0
   }
  },
  {
   "norad": 59444,
   "name": "CAPELLA-14 (ACADIA-4)",
   "intl": "2024-066C",
   "group": "sar",
   "gcat": {
    "class": "B",
    "category": "IMG-R",
    "owner": "CAPSP",
    "state": "US"
   },
   "omm": {
    "OBJECT_NAME": "CAPELLA-14 (ACADIA-4)",
    "OBJECT_ID": "2024-066C",
    "EPOCH": "2026-07-02T15:47:46.823712",
    "MEAN_MOTION": 15.09524944,
    "ECCENTRICITY": 0.000123,
    "INCLINATION": 45.6013,
    "RA_OF_ASC_NODE": 173.6814,
    "ARG_OF_PERICENTER": 132.2782,
    "MEAN_ANOMALY": 227.8208,
    "EPHEMERIS_TYPE": 0,
    "CLASSIFICATION_TYPE": "U",
    "NORAD_CAT_ID": 59444,
    "ELEMENT_SET_NO": 999,
    "REV_AT_EPOCH": 11482,
    "BSTAR": 0.00070365,
    "MEAN_MOTION_DOT": 0.00011227,
    "MEAN_MOTION_DDOT": 0
   }
  },
  {
   "norad": 60544,
   "name": "CAPELLA-15 (ACADIA-5)",
   "intl": "2024-149CE",
   "group": "sar",
   "gcat": {
    "class": "B",
    "category": "IMG-R",
    "owner": "CAPSP",
    "state": "US"
   },
   "omm": {
    "OBJECT_NAME": "CAPELLA-15 (ACADIA-5)",
    "OBJECT_ID": "2024-149CE",
    "EPOCH": "2026-07-02T17:50:36.632256",
    "MEAN_MOTION": 14.92414143,
    "ECCENTRICITY": 0.000381,
    "INCLINATION": 97.6766,
    "RA_OF_ASC_NODE": 256.258,
    "ARG_OF_PERICENTER": 31.3549,
    "MEAN_ANOMALY": 328.7897,
    "EPHEMERIS_TYPE": 0,
    "CLASSIFICATION_TYPE": "U",
    "NORAD_CAT_ID": 60544,
    "ELEMENT_SET_NO": 999,
    "REV_AT_EPOCH": 10217,
    "BSTAR": 0.00051229,
    "MEAN_MOTION_DOT": 0.00005194,
    "MEAN_MOTION_DDOT": 0
   }
  },
  {
   "norad": 65318,
   "name": "CAPELLA-16 (ACADIA-6)",
   "intl": "2025-188D",
   "group": "sar",
   "gcat": {
    "class": "B",
    "category": "IMG-R",
    "owner": "CAPSP",
    "state": "US"
   },
   "omm": {
    "OBJECT_NAME": "CAPELLA-16 (ACADIA-6)",
    "OBJECT_ID": "2025-188D",
    "EPOCH": "2026-07-02T11:53:51.185184",
    "MEAN_MOTION": 14.93923346,
    "ECCENTRICITY": 0.0004886,
    "INCLINATION": 97.7385,
    "RA_OF_ASC_NODE": 258.4179,
    "ARG_OF_PERICENTER": 166.0301,
    "MEAN_ANOMALY": 194.1055,
    "EPHEMERIS_TYPE": 0,
    "CLASSIFICATION_TYPE": "U",
    "NORAD_CAT_ID": 65318,
    "ELEMENT_SET_NO": 999,
    "REV_AT_EPOCH": 4620,
    "BSTAR": 0.00082035,
    "MEAN_MOTION_DOT": 0.0000868,
    "MEAN_MOTION_DDOT": 0
   }
  },
  {
   "norad": 64583,
   "name": "CAPELLA-17 (ACADIA-7)",
   "intl": "2025-135BH",
   "group": "sar",
   "gcat": {
    "class": "B",
    "category": "IMG-R",
    "owner": "CAPSP",
    "state": "US"
   },
   "omm": {
    "OBJECT_NAME": "CAPELLA-17 (ACADIA-7)",
    "OBJECT_ID": "2025-135BH",
    "EPOCH": "2026-07-02T18:27:11.286432",
    "MEAN_MOTION": 14.91496967,
    "ECCENTRICITY": 0.0003962,
    "INCLINATION": 97.7703,
    "RA_OF_ASC_NODE": 297.1602,
    "ARG_OF_PERICENTER": 305.2723,
    "MEAN_ANOMALY": 54.8125,
    "EPHEMERIS_TYPE": 0,
    "CLASSIFICATION_TYPE": "U",
    "NORAD_CAT_ID": 64583,
    "ELEMENT_SET_NO": 999,
    "REV_AT_EPOCH": 5617,
    "BSTAR": 0.00074498,
    "MEAN_MOTION_DOT": 0.00007407,
    "MEAN_MOTION_DDOT": 0
   }
  },
  {
   "norad": 67385,
   "name": "CAPELLA-18 (ACADIA-8)",
   "intl": "2026-004Y",
   "group": "sar",
   "gcat": {
    "class": "B",
    "category": "IMG-R",
    "owner": "CAPSP",
    "state": "US"
   },
   "omm": {
    "OBJECT_NAME": "CAPELLA-18 (ACADIA-8)",
    "OBJECT_ID": "2026-004Y",
    "EPOCH": "2026-07-02T18:09:52.036992",
    "MEAN_MOTION": 14.86631818,
    "ECCENTRICITY": 0.0001238,
    "INCLINATION": 97.8009,
    "RA_OF_ASC_NODE": 182.003,
    "ARG_OF_PERICENTER": 83.2779,
    "MEAN_ANOMALY": 276.8577,
    "EPHEMERIS_TYPE": 0,
    "CLASSIFICATION_TYPE": "U",
    "NORAD_CAT_ID": 67385,
    "ELEMENT_SET_NO": 999,
    "REV_AT_EPOCH": 2559,
    "BSTAR": 0.0001713,
    "MEAN_MOTION_DOT": 0.00001467,
    "MEAN_MOTION_DDOT": 0
   }
  },
  {
   "norad": 67384,
   "name": "CAPELLA-19 (ACADIA-9)",
   "intl": "2026-004X",
   "group": "sar",
   "gcat": {
    "class": "B",
    "category": "IMG-R",
    "owner": "CAPSP",
    "state": "US"
   },
   "omm": {
    "OBJECT_NAME": "CAPELLA-19 (ACADIA-9)",
    "OBJECT_ID": "2026-004X",
    "EPOCH": "2026-07-02T17:55:24.836736",
    "MEAN_MOTION": 14.86641636,
    "ECCENTRICITY": 0.0001455,
    "INCLINATION": 97.8002,
    "RA_OF_ASC_NODE": 181.8406,
    "ARG_OF_PERICENTER": 88.2481,
    "MEAN_ANOMALY": 271.8902,
    "EPHEMERIS_TYPE": 0,
    "CLASSIFICATION_TYPE": "U",
    "NORAD_CAT_ID": 67384,
    "ELEMENT_SET_NO": 999,
    "REV_AT_EPOCH": 2558,
    "BSTAR": 0.00076908,
    "MEAN_MOTION_DOT": 0.00006778,
    "MEAN_MOTION_DDOT": 0
   }
  }
 ]
}
